"{\n    \"CCSDS_OMM_VERS\": \"2.0\",\n    \"COMMENT\": \"GENERATED VIA SPACE-TRACK.ORG API\",\n    \"CREATION_DATE\": \"2025-08-31T17:37:22\",\n    \"ORIGINATOR\": \"18 SPCS\",\n    \"OBJECT_NAME\": \"NAVSTAR 76 (USA 266)\",\n    \"OBJECT_ID\": \"2016-007A\",\n    \"CENTER_NAME\": \"EARTH\",\n    \"REF_FRAME\": \"TEME\",\n    \"TIME_SYSTEM\": \"UTC\",\n    \"MEAN_ELEMENT_THEORY\": \"SGP4\",\n    \"EPOCH\": \"2025-08-31T04:30:43.183584\",\n    \"MEAN_MOTION\": \"2.0056621533\",\n    \"ECCENTRICITY\": \"0.0088326591\",\n    \"INCLINATION\": \"55.341041\",\n    \"RA_OF_ASC_NODE\": \"100.96701\",\n    \"ARG_OF_PERICENTER\": \"242.57299\",\n    \"MEAN_ANOMALY\": \"116.60421\",\n    \"EPHEMERIS_TYPE\": \"0\",\n    \"CLASSIFICATION_TYPE\": \"U\",\n    \"NORAD_CAT_ID\": \"41328\",\n    \"ELEMENT_SET_NO\": \"999\",\n    \"REV_AT_EPOCH\": \"7002\",\n    \"BSTAR\": \"0\",\n    \"MEAN_MOTION_DOT\": \"-0.000000128318\",\n    \"MEAN_MOTION_DDOT\": \"0\",\n    \"TLE_LINE0\": \"0 NAVSTAR 76 (USA 266)\",\n    \"TLE_LINE1\": \"1 41328U 16007A   25243.18799981 -.00000013  00000-0  00000-0 0  9995\",\n    \"TLE_LINE2\": \"2 41328  55.3410 100.9670 0088327 242.5730 116.6042  2.00566215 70028\",\n    \"SEMIMAJOR_AXIS\": \"26560.117\",\n    \"PERIOD\": \"717.967\",\n    \"APOAPSIS\": \"20416.579\",\n    \"PERIAPSIS\": \"19947.386\",\n    \"OBJECT_TYPE\": \"PAYLOAD\",\n    \"DECAYED\": \"0\"\n}"